<?xml version="1.0" encoding="UTF-8"?>
<gpx creator="StravaGPX" version="1.1" xmlns="http://www.topografix.com/GPX/1/1" xmlns:xsi="http://www.w3.org/2001/XMLSchema-instance" xsi:schemaLocation="http://www.topografix.com/GPX/1/1 http://www.topografix.com/GPX/1/1/gpx.xsd http://www.garmin.com/xmlschemas/GpxExtensions/v3 http://www.garmin.com/xmlschemas/GpxExtensionsv3.xsd http://www.garmin.com/xmlschemas/TrackPointExtension/v1 http://www.garmin.com/xmlschemas/TrackPointExtensionv1.xsd" xmlns:gpxtpx="http://www.garmin.com/xmlschemas/TrackPointExtension/v1" xmlns:gpxx="http://www.garmin.com/xmlschemas/GpxExtensions/v3">
 <trk>
  <name>Altstadt GP Bern</name>
  <type>running</type>
  <trkseg>
   <trkpt lat="46.9583520" lon="7.4631060"/>
   <trkpt lat="46.9583170" lon="7.4630840"/>
   <trkpt lat="46.9582920" lon="7.4630610"/>
   <trkpt lat="46.9582600" lon="7.4630370"/>
   <trkpt lat="46.9582340" lon="7.4630120"/>
   <trkpt lat="46.9582040" lon="7.4629810"/>
   <trkpt lat="46.9581770" lon="7.4629580"/>
   <trkpt lat="46.9581460" lon="7.4629350"/>
   <trkpt lat="46.9581150" lon="7.4629130"/>
   <trkpt lat="46.9580810" lon="7.4628930"/>
   <trkpt lat="46.9580460" lon="7.4628690"/>
   <trkpt lat="46.9580120" lon="7.4628500"/>
   <trkpt lat="46.9579830" lon="7.4628200"/>
   <trkpt lat="46.9579560" lon="7.4627990"/>
   <trkpt lat="46.9579250" lon="7.4627690"/>
   <trkpt lat="46.9578980" lon="7.4627530"/>
   <trkpt lat="46.9578660" lon="7.4627270"/>
   <trkpt lat="46.9578390" lon="7.4627020"/>
   <trkpt lat="46.9578060" lon="7.4626700"/>
   <trkpt lat="46.9577760" lon="7.4626460"/>
   <trkpt lat="46.9577410" lon="7.4626250"/>
   <trkpt lat="46.9577080" lon="7.4626000"/>
   <trkpt lat="46.9576760" lon="7.4625790"/>
   <trkpt lat="46.9576490" lon="7.4625560"/>
   <trkpt lat="46.9576200" lon="7.4625370"/>
   <trkpt lat="46.9575900" lon="7.4625090"/>
   <trkpt lat="46.9575620" lon="7.4624910"/>
   <trkpt lat="46.9575290" lon="7.4624660"/>
   <trkpt lat="46.9575020" lon="7.4624470"/>
   <trkpt lat="46.9574750" lon="7.4624260"/>
   <trkpt lat="46.9574480" lon="7.4624020"/>
   <trkpt lat="46.9574150" lon="7.4623820"/>
   <trkpt lat="46.9573850" lon="7.4623500"/>
   <trkpt lat="46.9573570" lon="7.4623280"/>
   <trkpt lat="46.9573200" lon="7.4622970"/>
   <trkpt lat="46.9572940" lon="7.4622770"/>
   <trkpt lat="46.9572640" lon="7.4622460"/>
   <trkpt lat="46.9572300" lon="7.4622230"/>
   <trkpt lat="46.9571960" lon="7.4622070"/>
   <trkpt lat="46.9571650" lon="7.4621980"/>
   <trkpt lat="46.9571340" lon="7.4621820"/>
   <trkpt lat="46.9571060" lon="7.4621590"/>
   <trkpt lat="46.9570790" lon="7.4621390"/>
   <trkpt lat="46.9570450" lon="7.4621160"/>
   <trkpt lat="46.9570190" lon="7.4621040"/>
   <trkpt lat="46.9569870" lon="7.4620800"/>
   <trkpt lat="46.9569580" lon="7.4620580"/>
   <trkpt lat="46.9569240" lon="7.4620380"/>
   <trkpt lat="46.9568950" lon="7.4620160"/>
   <trkpt lat="46.9568620" lon="7.4620010"/>
   <trkpt lat="46.9568290" lon="7.4619800"/>
   <trkpt lat="46.9567950" lon="7.4619640"/>
   <trkpt lat="46.9567650" lon="7.4619350"/>
   <trkpt lat="46.9567350" lon="7.4619190"/>
   <trkpt lat="46.9567080" lon="7.4618920"/>
   <trkpt lat="46.9566790" lon="7.4618710"/>
   <trkpt lat="46.9566510" lon="7.4618460"/>
   <trkpt lat="46.9566200" lon="7.4618230"/>
   <trkpt lat="46.9565880" lon="7.4618010"/>
   <trkpt lat="46.9565580" lon="7.4617800"/>
   <trkpt lat="46.9565340" lon="7.4617580"/>
   <trkpt lat="46.9565090" lon="7.4617320"/>
   <trkpt lat="46.9564810" lon="7.4617150"/>
   <trkpt lat="46.9564490" lon="7.4616880"/>
   <trkpt lat="46.9564230" lon="7.4616640"/>
   <trkpt lat="46.9563890" lon="7.4616370"/>
   <trkpt lat="46.9563620" lon="7.4616060"/>
   <trkpt lat="46.9563310" lon="7.4615820"/>
   <trkpt lat="46.9562990" lon="7.4615530"/>
   <trkpt lat="46.9562720" lon="7.4615370"/>
   <trkpt lat="46.9562470" lon="7.4615170"/>
   <trkpt lat="46.9562240" lon="7.4615020"/>
   <trkpt lat="46.9561900" lon="7.4614790"/>
   <trkpt lat="46.9561610" lon="7.4614610"/>
   <trkpt lat="46.9561290" lon="7.4614360"/>
   <trkpt lat="46.9560980" lon="7.4614130"/>
   <trkpt lat="46.9560690" lon="7.4613940"/>
   <trkpt lat="46.9560360" lon="7.4613670"/>
   <trkpt lat="46.9560060" lon="7.4613430"/>
   <trkpt lat="46.9559760" lon="7.4613150"/>
   <trkpt lat="46.9559480" lon="7.4612970"/>
   <trkpt lat="46.9559120" lon="7.4612710"/>
   <trkpt lat="46.9558830" lon="7.4612500"/>
   <trkpt lat="46.9558550" lon="7.4612310"/>
   <trkpt lat="46.9558260" lon="7.4612040"/>
   <trkpt lat="46.9558000" lon="7.4611840"/>
   <trkpt lat="46.9557660" lon="7.4611580"/>
   <trkpt lat="46.9557420" lon="7.4611380"/>
   <trkpt lat="46.9557110" lon="7.4611150"/>
   <trkpt lat="46.9556820" lon="7.4610900"/>
   <trkpt lat="46.9556500" lon="7.4610640"/>
   <trkpt lat="46.9556200" lon="7.4610400"/>
   <trkpt lat="46.9555900" lon="7.4610230"/>
   <trkpt lat="46.9555520" lon="7.4609990"/>
   <trkpt lat="46.9555230" lon="7.4609820"/>
   <trkpt lat="46.9554930" lon="7.4609620"/>
   <trkpt lat="46.9554650" lon="7.4609330"/>
   <trkpt lat="46.9554350" lon="7.4609060"/>
   <trkpt lat="46.9554090" lon="7.4608770"/>
   <trkpt lat="46.9553820" lon="7.4608580"/>
   <trkpt lat="46.9553540" lon="7.4608350"/>
   <trkpt lat="46.9553340" lon="7.4608100"/>
   <trkpt lat="46.9553050" lon="7.4607880"/>
   <trkpt lat="46.9552750" lon="7.4607610"/>
   <trkpt lat="46.9552500" lon="7.4607400"/>
   <trkpt lat="46.9552140" lon="7.4607100"/>
   <trkpt lat="46.9551910" lon="7.4606940"/>
   <trkpt lat="46.9551560" lon="7.4606670"/>
   <trkpt lat="46.9551260" lon="7.4606440"/>
   <trkpt lat="46.9550980" lon="7.4606240"/>
   <trkpt lat="46.9550680" lon="7.4605970"/>
   <trkpt lat="46.9550450" lon="7.4605760"/>
   <trkpt lat="46.9550140" lon="7.4605510"/>
   <trkpt lat="46.9549860" lon="7.4605300"/>
   <trkpt lat="46.9549510" lon="7.4605060"/>
   <trkpt lat="46.9549190" lon="7.4604880"/>
   <trkpt lat="46.9548910" lon="7.4604690"/>
   <trkpt lat="46.9548630" lon="7.4604490"/>
   <trkpt lat="46.9548380" lon="7.4604280"/>
   <trkpt lat="46.9548090" lon="7.4604040"/>
   <trkpt lat="46.9547840" lon="7.4603850"/>
   <trkpt lat="46.9547490" lon="7.4603530"/>
   <trkpt lat="46.9547200" lon="7.4603300"/>
   <trkpt lat="46.9546890" lon="7.4603050"/>
   <trkpt lat="46.9546620" lon="7.4602860"/>
   <trkpt lat="46.9546330" lon="7.4602630"/>
   <trkpt lat="46.9546050" lon="7.4602360"/>
   <trkpt lat="46.9545760" lon="7.4602190"/>
   <trkpt lat="46.9545430" lon="7.4601970"/>
   <trkpt lat="46.9545180" lon="7.4601820"/>
   <trkpt lat="46.9544830" lon="7.4601610"/>
   <trkpt lat="46.9544580" lon="7.4601380"/>
   <trkpt lat="46.9544300" lon="7.4601150"/>
   <trkpt lat="46.9544020" lon="7.4600910"/>
   <trkpt lat="46.9543740" lon="7.4600660"/>
   <trkpt lat="46.9543420" lon="7.4600390"/>
   <trkpt lat="46.9543140" lon="7.4600170"/>
   <trkpt lat="46.9542830" lon="7.4599920"/>
   <trkpt lat="46.9542540" lon="7.4599660"/>
   <trkpt lat="46.9542220" lon="7.4599470"/>
   <trkpt lat="46.9541930" lon="7.4599190"/>
   <trkpt lat="46.9541650" lon="7.4599020"/>
   <trkpt lat="46.9541320" lon="7.4598810"/>
   <trkpt lat="46.9541030" lon="7.4598640"/>
   <trkpt lat="46.9540670" lon="7.4598430"/>
   <trkpt lat="46.9540360" lon="7.4598260"/>
   <trkpt lat="46.9540050" lon="7.4598020"/>
   <trkpt lat="46.9539750" lon="7.4597730"/>
   <trkpt lat="46.9539480" lon="7.4597600"/>
   <trkpt lat="46.9539160" lon="7.4597370"/>
   <trkpt lat="46.9538960" lon="7.4597220"/>
   <trkpt lat="46.9538640" lon="7.4596960"/>
   <trkpt lat="46.9538380" lon="7.4596770"/>
   <trkpt lat="46.9538120" lon="7.4596660"/>
   <trkpt lat="46.9537850" lon="7.4596400"/>
   <trkpt lat="46.9537550" lon="7.4596210"/>
   <trkpt lat="46.9537240" lon="7.4595960"/>
   <trkpt lat="46.9536970" lon="7.4595710"/>
   <trkpt lat="46.9536650" lon="7.4595480"/>
   <trkpt lat="46.9536320" lon="7.4595240"/>
   <trkpt lat="46.9536030" lon="7.4595080"/>
   <trkpt lat="46.9535670" lon="7.4594810"/>
   <trkpt lat="46.9535380" lon="7.4594580"/>
   <trkpt lat="46.9535000" lon="7.4594290"/>
   <trkpt lat="46.9534700" lon="7.4593980"/>
   <trkpt lat="46.9534370" lon="7.4593730"/>
   <trkpt lat="46.9534070" lon="7.4593420"/>
   <trkpt lat="46.9533810" lon="7.4593180"/>
   <trkpt lat="46.9533520" lon="7.4592820"/>
   <trkpt lat="46.9533250" lon="7.4592590"/>
   <trkpt lat="46.9532900" lon="7.4592310"/>
   <trkpt lat="46.9532610" lon="7.4592060"/>
   <trkpt lat="46.9532350" lon="7.4591850"/>
   <trkpt lat="46.9532010" lon="7.4591530"/>
   <trkpt lat="46.9531750" lon="7.4591330"/>
   <trkpt lat="46.9531370" lon="7.4591060"/>
   <trkpt lat="46.9531060" lon="7.4590840"/>
   <trkpt lat="46.9530760" lon="7.4590600"/>
   <trkpt lat="46.9530460" lon="7.4590290"/>
   <trkpt lat="46.9530190" lon="7.4590070"/>
   <trkpt lat="46.9529860" lon="7.4589760"/>
   <trkpt lat="46.9529590" lon="7.4589540"/>
   <trkpt lat="46.9529290" lon="7.4589300"/>
   <trkpt lat="46.9529030" lon="7.4589020"/>
   <trkpt lat="46.9528770" lon="7.4588800"/>
   <trkpt lat="46.9528460" lon="7.4588480"/>
   <trkpt lat="46.9528210" lon="7.4588270"/>
   <trkpt lat="46.9527870" lon="7.4588090"/>
   <trkpt lat="46.9527570" lon="7.4587910"/>
   <trkpt lat="46.9527270" lon="7.4587760"/>
   <trkpt lat="46.9526920" lon="7.4587540"/>
   <trkpt lat="46.9526610" lon="7.4587460"/>
   <trkpt lat="46.9526240" lon="7.4587290"/>
   <trkpt lat="46.9525940" lon="7.4587120"/>
   <trkpt lat="46.9525560" lon="7.4587010"/>
   <trkpt lat="46.9525210" lon="7.4586850"/>
   <trkpt lat="46.9524900" lon="7.4586740"/>
   <trkpt lat="46.9524570" lon="7.4586650"/>
   <trkpt lat="46.9524270" lon="7.4586620"/>
   <trkpt lat="46.9523890" lon="7.4586520"/>
   <trkpt lat="46.9523570" lon="7.4586480"/>
   <trkpt lat="46.9523240" lon="7.4586450"/>
   <trkpt lat="46.9522860" lon="7.4586440"/>
   <trkpt lat="46.9522530" lon="7.4586550"/>
   <trkpt lat="46.9522150" lon="7.4586590"/>
   <trkpt lat="46.9521850" lon="7.4586690"/>
   <trkpt lat="46.9521510" lon="7.4586780"/>
   <trkpt lat="46.9521160" lon="7.4586790"/>
   <trkpt lat="46.9520790" lon="7.4586900"/>
   <trkpt lat="46.9520440" lon="7.4587020"/>
   <trkpt lat="46.9520130" lon="7.4587170"/>
   <trkpt lat="46.9519740" lon="7.4587310"/>
   <trkpt lat="46.9519460" lon="7.4587380"/>
   <trkpt lat="46.9519130" lon="7.4587550"/>
   <trkpt lat="46.9518880" lon="7.4587760"/>
   <trkpt lat="46.9518480" lon="7.4588030"/>
   <trkpt lat="46.9518150" lon="7.4588280"/>
   <trkpt lat="46.9517850" lon="7.4588540"/>
   <trkpt lat="46.9517510" lon="7.4588790"/>
   <trkpt lat="46.9517230" lon="7.4589080"/>
   <trkpt lat="46.9516880" lon="7.4589360"/>
   <trkpt lat="46.9516560" lon="7.4589570"/>
   <trkpt lat="46.9516180" lon="7.4589870"/>
   <trkpt lat="46.9515850" lon="7.4590150"/>
   <trkpt lat="46.9515520" lon="7.4590430"/>
   <trkpt lat="46.9515230" lon="7.4590680"/>
   <trkpt lat="46.9514940" lon="7.4590940"/>
   <trkpt lat="46.9514590" lon="7.4591170"/>
   <trkpt lat="46.9514360" lon="7.4591400"/>
   <trkpt lat="46.9514030" lon="7.4591740"/>
   <trkpt lat="46.9513710" lon="7.4591930"/>
   <trkpt lat="46.9513380" lon="7.4592240"/>
   <trkpt lat="46.9513090" lon="7.4592510"/>
   <trkpt lat="46.9512810" lon="7.4592830"/>
   <trkpt lat="46.9512470" lon="7.4593070"/>
   <trkpt lat="46.9512170" lon="7.4593300"/>
   <trkpt lat="46.9511820" lon="7.4593530"/>
   <trkpt lat="46.9511510" lon="7.4593760"/>
   <trkpt lat="46.9511210" lon="7.4594020"/>
   <trkpt lat="46.9510960" lon="7.4594300"/>
   <trkpt lat="46.9510670" lon="7.4594590"/>
   <trkpt lat="46.9510350" lon="7.4594830"/>
   <trkpt lat="46.9510120" lon="7.4595120"/>
   <trkpt lat="46.9509810" lon="7.4595410"/>
   <trkpt lat="46.9509520" lon="7.4595640"/>
   <trkpt lat="46.9509180" lon="7.4595890"/>
   <trkpt lat="46.9508880" lon="7.4596120"/>
   <trkpt lat="46.9508580" lon="7.4596400"/>
   <trkpt lat="46.9508240" lon="7.4596640"/>
   <trkpt lat="46.9508010" lon="7.4596900"/>
   <trkpt lat="46.9507620" lon="7.4597190"/>
   <trkpt lat="46.9507360" lon="7.4597380"/>
   <trkpt lat="46.9507040" lon="7.4597640"/>
   <trkpt lat="46.9506760" lon="7.4597870"/>
   <trkpt lat="46.9506440" lon="7.4598130"/>
   <trkpt lat="46.9506120" lon="7.4598240"/>
   <trkpt lat="46.9505810" lon="7.4598450"/>
   <trkpt lat="46.9505450" lon="7.4598690"/>
   <trkpt lat="46.9505160" lon="7.4598800"/>
   <trkpt lat="46.9504830" lon="7.4599040"/>
   <trkpt lat="46.9504520" lon="7.4599190"/>
   <trkpt lat="46.9504170" lon="7.4599430"/>
   <trkpt lat="46.9503820" lon="7.4599580"/>
   <trkpt lat="46.9503560" lon="7.4599760"/>
   <trkpt lat="46.9503180" lon="7.4599970"/>
   <trkpt lat="46.9502880" lon="7.4600090"/>
   <trkpt lat="46.9502560" lon="7.4600270"/>
   <trkpt lat="46.9502200" lon="7.4600350"/>
   <trkpt lat="46.9501890" lon="7.4600430"/>
   <trkpt lat="46.9501500" lon="7.4600560"/>
   <trkpt lat="46.9501160" lon="7.4600650"/>
   <trkpt lat="46.9500760" lon="7.4600820"/>
   <trkpt lat="46.9500400" lon="7.4600890"/>
   <trkpt lat="46.9500100" lon="7.4600940"/>
   <trkpt lat="46.9499730" lon="7.4601040"/>
   <trkpt lat="46.9499450" lon="7.4601180"/>
   <trkpt lat="46.9499130" lon="7.4601320"/>
   <trkpt lat="46.9498820" lon="7.4601370"/>
   <trkpt lat="46.9498540" lon="7.4601520"/>
   <trkpt lat="46.9498190" lon="7.4601590"/>
   <trkpt lat="46.9497900" lon="7.4601650"/>
   <trkpt lat="46.9497520" lon="7.4601720"/>
   <trkpt lat="46.9497230" lon="7.4601870"/>
   <trkpt lat="46.9496870" lon="7.4602060"/>
   <trkpt lat="46.9496530" lon="7.4602150"/>
   <trkpt lat="46.9496220" lon="7.4602290"/>
   <trkpt lat="46.9495790" lon="7.4602290"/>
   <trkpt lat="46.9495450" lon="7.4602360"/>
   <trkpt lat="46.9495070" lon="7.4602500"/>
   <trkpt lat="46.9494700" lon="7.4602620"/>
   <trkpt lat="46.9494420" lon="7.4602790"/>
   <trkpt lat="46.9494040" lon="7.4602850"/>
   <trkpt lat="46.9493740" lon="7.4602970"/>
   <trkpt lat="46.9493420" lon="7.4603070"/>
   <trkpt lat="46.9493090" lon="7.4603180"/>
   <trkpt lat="46.9492760" lon="7.4603340"/>
   <trkpt lat="46.9492390" lon="7.4603530"/>
   <trkpt lat="46.9492110" lon="7.4603690"/>
   <trkpt lat="46.9491710" lon="7.4603780"/>
   <trkpt lat="46.9491360" lon="7.4603860"/>
   <trkpt lat="46.9491000" lon="7.4603990"/>
   <trkpt lat="46.9490630" lon="7.4604100"/>
   <trkpt lat="46.9490320" lon="7.4604240"/>
   <trkpt lat="46.9489920" lon="7.4604320"/>
   <trkpt lat="46.9489600" lon="7.4604410"/>
   <trkpt lat="46.9489190" lon="7.4604520"/>
   <trkpt lat="46.9488830" lon="7.4604510"/>
   <trkpt lat="46.9488430" lon="7.4604520"/>
   <trkpt lat="46.9488030" lon="7.4604370"/>
   <trkpt lat="46.9487720" lon="7.4604260"/>
   <trkpt lat="46.9487340" lon="7.4603970"/>
   <trkpt lat="46.9487060" lon="7.4603780"/>
   <trkpt lat="46.9486750" lon="7.4603540"/>
   <trkpt lat="46.9486470" lon="7.4603220"/>
   <trkpt lat="46.9486180" lon="7.4602940"/>
   <trkpt lat="46.9485900" lon="7.4602510"/>
   <trkpt lat="46.9485640" lon="7.4602220"/>
   <trkpt lat="46.9485330" lon="7.4601760"/>
   <trkpt lat="46.9485110" lon="7.4601500"/>
   <trkpt lat="46.9484810" lon="7.4601090"/>
   <trkpt lat="46.9484530" lon="7.4600710"/>
   <trkpt lat="46.9484290" lon="7.4600320"/>
   <trkpt lat="46.9484140" lon="7.4599810"/>
   <trkpt lat="46.9483990" lon="7.4599360"/>
   <trkpt lat="46.9483970" lon="7.4598790"/>
   <trkpt lat="46.9483970" lon="7.4598420"/>
   <trkpt lat="46.9483960" lon="7.4597900"/>
   <trkpt lat="46.9483980" lon="7.4597460"/>
   <trkpt lat="46.9484010" lon="7.4596940"/>
   <trkpt lat="46.9484090" lon="7.4596440"/>
   <trkpt lat="46.9484130" lon="7.4595950"/>
   <trkpt lat="46.9484190" lon="7.4595390"/>
   <trkpt lat="46.9484190" lon="7.4594900"/>
   <trkpt lat="46.9484230" lon="7.4594300"/>
   <trkpt lat="46.9484270" lon="7.4593860"/>
   <trkpt lat="46.9484300" lon="7.4593410"/>
   <trkpt lat="46.9484320" lon="7.4592910"/>
   <trkpt lat="46.9484350" lon="7.4592460"/>
   <trkpt lat="46.9484380" lon="7.4591920"/>
   <trkpt lat="46.9484370" lon="7.4591490"/>
   <trkpt lat="46.9484410" lon="7.4590980"/>
   <trkpt lat="46.9484450" lon="7.4590490"/>
   <trkpt lat="46.9484470" lon="7.4590030"/>
   <trkpt lat="46.9484520" lon="7.4589520"/>
   <trkpt lat="46.9484550" lon="7.4589130"/>
   <trkpt lat="46.9484600" lon="7.4588580"/>
   <trkpt lat="46.9484600" lon="7.4588180"/>
   <trkpt lat="46.9484590" lon="7.4587700"/>
   <trkpt lat="46.9484640" lon="7.4587230"/>
   <trkpt lat="46.9484660" lon="7.4586880"/>
   <trkpt lat="46.9484710" lon="7.4586360"/>
   <trkpt lat="46.9484780" lon="7.4585920"/>
   <trkpt lat="46.9484800" lon="7.4585450"/>
   <trkpt lat="46.9484870" lon="7.4585000"/>
   <trkpt lat="46.9484880" lon="7.4584550"/>
   <trkpt lat="46.9484940" lon="7.4584070"/>
   <trkpt lat="46.9484980" lon="7.4583610"/>
   <trkpt lat="46.9484990" lon="7.4583140"/>
   <trkpt lat="46.9485020" lon="7.4582680"/>
   <trkpt lat="46.9485040" lon="7.4582240"/>
   <trkpt lat="46.9485100" lon="7.4581770"/>
   <trkpt lat="46.9485150" lon="7.4581310"/>
   <trkpt lat="46.9485220" lon="7.4580810"/>
   <trkpt lat="46.9485260" lon="7.4580340"/>
   <trkpt lat="46.9485320" lon="7.4579760"/>
   <trkpt lat="46.9485330" lon="7.4579320"/>
   <trkpt lat="46.9485340" lon="7.4578790"/>
   <trkpt lat="46.9485380" lon="7.4578290"/>
   <trkpt lat="46.9485380" lon="7.4577850"/>
   <trkpt lat="46.9485400" lon="7.4577370"/>
   <trkpt lat="46.9485420" lon="7.4576950"/>
   <trkpt lat="46.9485500" lon="7.4576400"/>
   <trkpt lat="46.9485530" lon="7.4575950"/>
   <trkpt lat="46.9485580" lon="7.4575420"/>
   <trkpt lat="46.9485640" lon="7.4574940"/>
   <trkpt lat="46.9485650" lon="7.4574470"/>
   <trkpt lat="46.9485720" lon="7.4573990"/>
   <trkpt lat="46.9485740" lon="7.4573580"/>
   <trkpt lat="46.9485780" lon="7.4573090"/>
   <trkpt lat="46.9485770" lon="7.4572650"/>
   <trkpt lat="46.9485820" lon="7.4572200"/>
   <trkpt lat="46.9485860" lon="7.4571700"/>
   <trkpt lat="46.9485870" lon="7.4571270"/>
   <trkpt lat="46.9485910" lon="7.4570780"/>
   <trkpt lat="46.9485920" lon="7.4570360"/>
   <trkpt lat="46.9485950" lon="7.4569850"/>
   <trkpt lat="46.9485990" lon="7.4569400"/>
   <trkpt lat="46.9486020" lon="7.4568930"/>
   <trkpt lat="46.9486080" lon="7.4568450"/>
   <trkpt lat="46.9486100" lon="7.4568070"/>
   <trkpt lat="46.9486120" lon="7.4567610"/>
   <trkpt lat="46.9486150" lon="7.4567260"/>
   <trkpt lat="46.9486160" lon="7.4566750"/>
   <trkpt lat="46.9486240" lon="7.4566340"/>
   <trkpt lat="46.9486280" lon="7.4565840"/>
   <trkpt lat="46.9486310" lon="7.4565350"/>
   <trkpt lat="46.9486330" lon="7.4564900"/>
   <trkpt lat="46.9486370" lon="7.4564370"/>
   <trkpt lat="46.9486420" lon="7.4563960"/>
   <trkpt lat="46.9486490" lon="7.4563470"/>
   <trkpt lat="46.9486560" lon="7.4563080"/>
   <trkpt lat="46.9486600" lon="7.4562620"/>
   <trkpt lat="46.9486660" lon="7.4562230"/>
   <trkpt lat="46.9486610" lon="7.4561750"/>
   <trkpt lat="46.9486620" lon="7.4561290"/>
   <trkpt lat="46.9486650" lon="7.4560930"/>
   <trkpt lat="46.9486650" lon="7.4560410"/>
   <trkpt lat="46.9486670" lon="7.4560060"/>
   <trkpt lat="46.9486680" lon="7.4559510"/>
   <trkpt lat="46.9486770" lon="7.4559030"/>
   <trkpt lat="46.9486960" lon="7.4558670"/>
   <trkpt lat="46.9487180" lon="7.4558370"/>
   <trkpt lat="46.9487380" lon="7.4558090"/>
   <trkpt lat="46.9487700" lon="7.4557900"/>
   <trkpt lat="46.9487970" lon="7.4557730"/>
   <trkpt lat="46.9488220" lon="7.4557550"/>
   <trkpt lat="46.9488480" lon="7.4557420"/>
   <trkpt lat="46.9488760" lon="7.4557280"/>
   <trkpt lat="46.9489040" lon="7.4557180"/>
   <trkpt lat="46.9489350" lon="7.4557030"/>
   <trkpt lat="46.9489710" lon="7.4556910"/>
   <trkpt lat="46.9490020" lon="7.4556760"/>
   <trkpt lat="46.9490390" lon="7.4556650"/>
   <trkpt lat="46.9490520" lon="7.4556410"/>
   <trkpt lat="46.9490650" lon="7.4555980"/>
   <trkpt lat="46.9490750" lon="7.4555590"/>
   <trkpt lat="46.9490710" lon="7.4555150"/>
   <trkpt lat="46.9490760" lon="7.4554710"/>
   <trkpt lat="46.9490780" lon="7.4554220"/>
   <trkpt lat="46.9490810" lon="7.4553700"/>
   <trkpt lat="46.9490820" lon="7.4553260"/>
   <trkpt lat="46.9490810" lon="7.4552710"/>
   <trkpt lat="46.9490780" lon="7.4552280"/>
   <trkpt lat="46.9490740" lon="7.4551670"/>
   <trkpt lat="46.9490680" lon="7.4551260"/>
   <trkpt lat="46.9490540" lon="7.4550760"/>
   <trkpt lat="46.9490440" lon="7.4550380"/>
   <trkpt lat="46.9490370" lon="7.4550050"/>
   <trkpt lat="46.9490340" lon="7.4549610"/>
   <trkpt lat="46.9490190" lon="7.4549300"/>
   <trkpt lat="46.9490030" lon="7.4548800"/>
   <trkpt lat="46.9489890" lon="7.4548460"/>
   <trkpt lat="46.9489730" lon="7.4547990"/>
   <trkpt lat="46.9489610" lon="7.4547580"/>
   <trkpt lat="46.9489540" lon="7.4547240"/>
   <trkpt lat="46.9489420" lon="7.4546790"/>
   <trkpt lat="46.9489340" lon="7.4546410"/>
   <trkpt lat="46.9489170" lon="7.4545960"/>
   <trkpt lat="46.9489020" lon="7.4545600"/>
   <trkpt lat="46.9488830" lon="7.4545060"/>
   <trkpt lat="46.9488680" lon="7.4544640"/>
   <trkpt lat="46.9488540" lon="7.4544180"/>
   <trkpt lat="46.9488430" lon="7.4543680"/>
   <trkpt lat="46.9488320" lon="7.4543270"/>
   <trkpt lat="46.9488200" lon="7.4542750"/>
   <trkpt lat="46.9488150" lon="7.4542400"/>
   <trkpt lat="46.9488070" lon="7.4541890"/>
   <trkpt lat="46.9488040" lon="7.4541540"/>
   <trkpt lat="46.9487960" lon="7.4541130"/>
   <trkpt lat="46.9487880" lon="7.4540740"/>
   <trkpt lat="46.9487700" lon="7.4540400"/>
   <trkpt lat="46.9487680" lon="7.4539980"/>
   <trkpt lat="46.9487580" lon="7.4539600"/>
   <trkpt lat="46.9487520" lon="7.4539100"/>
   <trkpt lat="46.9487450" lon="7.4538700"/>
   <trkpt lat="46.9487360" lon="7.4538360"/>
   <trkpt lat="46.9487270" lon="7.4537850"/>
   <trkpt lat="46.9487150" lon="7.4537450"/>
   <trkpt lat="46.9487060" lon="7.4536940"/>
   <trkpt lat="46.9487050" lon="7.4536540"/>
   <trkpt lat="46.9487000" lon="7.4536070"/>
   <trkpt lat="46.9486950" lon="7.4535640"/>
   <trkpt lat="46.9486810" lon="7.4535290"/>
   <trkpt lat="46.9486730" lon="7.4534760"/>
   <trkpt lat="46.9486760" lon="7.4534430"/>
   <trkpt lat="46.9486670" lon="7.4533980"/>
   <trkpt lat="46.9486630" lon="7.4533560"/>
   <trkpt lat="46.9486570" lon="7.4533160"/>
   <trkpt lat="46.9486530" lon="7.4532700"/>
   <trkpt lat="46.9486450" lon="7.4532410"/>
   <trkpt lat="46.9486330" lon="7.4532020"/>
   <trkpt lat="46.9486240" lon="7.4531700"/>
   <trkpt lat="46.9486070" lon="7.4531300"/>
   <trkpt lat="46.9486060" lon="7.4530810"/>
   <trkpt lat="46.9486000" lon="7.4530380"/>
   <trkpt lat="46.9486050" lon="7.4529850"/>
   <trkpt lat="46.9486140" lon="7.4529490"/>
   <trkpt lat="46.9486130" lon="7.4529060"/>
   <trkpt lat="46.9486100" lon="7.4528690"/>
   <trkpt lat="46.9486100" lon="7.4528330"/>
   <trkpt lat="46.9486000" lon="7.4527760"/>
   <trkpt lat="46.9486030" lon="7.4527430"/>
   <trkpt lat="46.9485980" lon="7.4526910"/>
   <trkpt lat="46.9486010" lon="7.4526480"/>
   <trkpt lat="46.9485910" lon="7.4526030"/>
   <trkpt lat="46.9485850" lon="7.4525570"/>
   <trkpt lat="46.9485840" lon="7.4525190"/>
   <trkpt lat="46.9485730" lon="7.4524800"/>
   <trkpt lat="46.9485690" lon="7.4524420"/>
   <trkpt lat="46.9485470" lon="7.4523980"/>
   <trkpt lat="46.9485530" lon="7.4523480"/>
   <trkpt lat="46.9485440" lon="7.4523110"/>
   <trkpt lat="46.9485370" lon="7.4522640"/>
   <trkpt lat="46.9485360" lon="7.4522270"/>
   <trkpt lat="46.9485310" lon="7.4521790"/>
   <trkpt lat="46.9485290" lon="7.4521320"/>
   <trkpt lat="46.9485260" lon="7.4520870"/>
   <trkpt lat="46.9485270" lon="7.4520370"/>
   <trkpt lat="46.9485240" lon="7.4519980"/>
   <trkpt lat="46.9485210" lon="7.4519490"/>
   <trkpt lat="46.9485180" lon="7.4519110"/>
   <trkpt lat="46.9485120" lon="7.4518690"/>
   <trkpt lat="46.9485100" lon="7.4518220"/>
   <trkpt lat="46.9485040" lon="7.4517900"/>
   <trkpt lat="46.9484980" lon="7.4517480"/>
   <trkpt lat="46.9485030" lon="7.4517060"/>
   <trkpt lat="46.9485050" lon="7.4516660"/>
   <trkpt lat="46.9485030" lon="7.4516150"/>
   <trkpt lat="46.9484980" lon="7.4515820"/>
   <trkpt lat="46.9484910" lon="7.4515300"/>
   <trkpt lat="46.9484920" lon="7.4514890"/>
   <trkpt lat="46.9484840" lon="7.4514460"/>
   <trkpt lat="46.9484910" lon="7.4514060"/>
   <trkpt lat="46.9484860" lon="7.4513650"/>
   <trkpt lat="46.9484890" lon="7.4513090"/>
   <trkpt lat="46.9484960" lon="7.4512690"/>
   <trkpt lat="46.9484950" lon="7.4512220"/>
   <trkpt lat="46.9484980" lon="7.4511750"/>
   <trkpt lat="46.9484990" lon="7.4511330"/>
   <trkpt lat="46.9485040" lon="7.4510840"/>
   <trkpt lat="46.9485120" lon="7.4510530"/>
   <trkpt lat="46.9485160" lon="7.4510060"/>
   <trkpt lat="46.9485200" lon="7.4509600"/>
   <trkpt lat="46.9485270" lon="7.4509260"/>
   <trkpt lat="46.9485280" lon="7.4508740"/>
   <trkpt lat="46.9485290" lon="7.4508430"/>
   <trkpt lat="46.9485170" lon="7.4508000"/>
   <trkpt lat="46.9485180" lon="7.4507590"/>
   <trkpt lat="46.9485110" lon="7.4507170"/>
   <trkpt lat="46.9485130" lon="7.4506680"/>
   <trkpt lat="46.9485140" lon="7.4506380"/>
   <trkpt lat="46.9485150" lon="7.4505850"/>
   <trkpt lat="46.9485210" lon="7.4505430"/>
   <trkpt lat="46.9485220" lon="7.4504980"/>
   <trkpt lat="46.9485210" lon="7.4504430"/>
   <trkpt lat="46.9485190" lon="7.4504100"/>
   <trkpt lat="46.9485190" lon="7.4503640"/>
   <trkpt lat="46.9485170" lon="7.4503260"/>
   <trkpt lat="46.9485130" lon="7.4502810"/>
   <trkpt lat="46.9485140" lon="7.4502340"/>
   <trkpt lat="46.9485140" lon="7.4501970"/>
   <trkpt lat="46.9485180" lon="7.4501500"/>
   <trkpt lat="46.9485210" lon="7.4501090"/>
   <trkpt lat="46.9485150" lon="7.4500630"/>
   <trkpt lat="46.9485170" lon="7.4500210"/>
   <trkpt lat="46.9485150" lon="7.4499850"/>
   <trkpt lat="46.9485090" lon="7.4499390"/>
   <trkpt lat="46.9485060" lon="7.4499020"/>
   <trkpt lat="46.9485010" lon="7.4498610"/>
   <trkpt lat="46.9485020" lon="7.4498130"/>
   <trkpt lat="46.9484990" lon="7.4497740"/>
   <trkpt lat="46.9485020" lon="7.4497220"/>
   <trkpt lat="46.9485050" lon="7.4496870"/>
   <trkpt lat="46.9485080" lon="7.4496370"/>
   <trkpt lat="46.9485090" lon="7.4495910"/>
   <trkpt lat="46.9485100" lon="7.4495530"/>
   <trkpt lat="46.9485060" lon="7.4495050"/>
   <trkpt lat="46.9484960" lon="7.4494760"/>
   <trkpt lat="46.9484900" lon="7.4494280"/>
   <trkpt lat="46.9484900" lon="7.4493860"/>
   <trkpt lat="46.9484920" lon="7.4493450"/>
   <trkpt lat="46.9484960" lon="7.4492970"/>
   <trkpt lat="46.9484950" lon="7.4492530"/>
   <trkpt lat="46.9484920" lon="7.4491960"/>
   <trkpt lat="46.9484930" lon="7.4491570"/>
   <trkpt lat="46.9484940" lon="7.4490980"/>
   <trkpt lat="46.9484870" lon="7.4490530"/>
   <trkpt lat="46.9484870" lon="7.4490040"/>
   <trkpt lat="46.9484870" lon="7.4489580"/>
   <trkpt lat="46.9484780" lon="7.4489200"/>
   <trkpt lat="46.9484800" lon="7.4488690"/>
   <trkpt lat="46.9484850" lon="7.4488320"/>
   <trkpt lat="46.9484930" lon="7.4487780"/>
   <trkpt lat="46.9484960" lon="7.4487360"/>
   <trkpt lat="46.9484900" lon="7.4486900"/>
   <trkpt lat="46.9484960" lon="7.4486380"/>
   <trkpt lat="46.9485010" lon="7.4485990"/>
   <trkpt lat="46.9485060" lon="7.4485450"/>
   <trkpt lat="46.9485050" lon="7.4485060"/>
   <trkpt lat="46.9484980" lon="7.4484550"/>
   <trkpt lat="46.9485010" lon="7.4484040"/>
   <trkpt lat="46.9484880" lon="7.4483550"/>
   <trkpt lat="46.9484640" lon="7.4483120"/>
   <trkpt lat="46.9484490" lon="7.4482830"/>
   <trkpt lat="46.9484300" lon="7.4482510"/>
   <trkpt lat="46.9484140" lon="7.4482210"/>
   <trkpt lat="46.9483900" lon="7.4481930"/>
   <trkpt lat="46.9483670" lon="7.4481670"/>
   <trkpt lat="46.9483410" lon="7.4481380"/>
   <trkpt lat="46.9483160" lon="7.4481130"/>
   <trkpt lat="46.9482880" lon="7.4480950"/>
   <trkpt lat="46.9482590" lon="7.4480750"/>
   <trkpt lat="46.9482300" lon="7.4480610"/>
   <trkpt lat="46.9481860" lon="7.4480640"/>
   <trkpt lat="46.9481360" lon="7.4480920"/>
   <trkpt lat="46.9480850" lon="7.4481260"/>
   <trkpt lat="46.9480580" lon="7.4481550"/>
   <trkpt lat="46.9480310" lon="7.4481860"/>
   <trkpt lat="46.9480080" lon="7.4482290"/>
   <trkpt lat="46.9479890" lon="7.4482680"/>
   <trkpt lat="46.9479780" lon="7.4483270"/>
   <trkpt lat="46.9479700" lon="7.4483750"/>
   <trkpt lat="46.9479640" lon="7.4484340"/>
   <trkpt lat="46.9479590" lon="7.4484820"/>
   <trkpt lat="46.9479580" lon="7.4485300"/>
   <trkpt lat="46.9479530" lon="7.4485910"/>
   <trkpt lat="46.9479490" lon="7.4486390"/>
   <trkpt lat="46.9479490" lon="7.4486920"/>
   <trkpt lat="46.9479520" lon="7.4487390"/>
   <trkpt lat="46.9479580" lon="7.4487740"/>
   <trkpt lat="46.9479580" lon="7.4488270"/>
   <trkpt lat="46.9479590" lon="7.4488600"/>
   <trkpt lat="46.9479630" lon="7.4489120"/>
   <trkpt lat="46.9479640" lon="7.4489600"/>
   <trkpt lat="46.9479630" lon="7.4490080"/>
   <trkpt lat="46.9479650" lon="7.4490600"/>
   <trkpt lat="46.9479620" lon="7.4490960"/>
   <trkpt lat="46.9479640" lon="7.4491470"/>
   <trkpt lat="46.9479690" lon="7.4491890"/>
   <trkpt lat="46.9479790" lon="7.4492330"/>
   <trkpt lat="46.9479830" lon="7.4492850"/>
   <trkpt lat="46.9479880" lon="7.4493210"/>
   <trkpt lat="46.9479960" lon="7.4493720"/>
   <trkpt lat="46.9479960" lon="7.4494130"/>
   <trkpt lat="46.9479990" lon="7.4494650"/>
   <trkpt lat="46.9479960" lon="7.4495200"/>
   <trkpt lat="46.9479940" lon="7.4495640"/>
   <trkpt lat="46.9479950" lon="7.4496200"/>
   <trkpt lat="46.9479940" lon="7.4496610"/>
   <trkpt lat="46.9479930" lon="7.4497100"/>
   <trkpt lat="46.9479900" lon="7.4497570"/>
   <trkpt lat="46.9479930" lon="7.4498030"/>
   <trkpt lat="46.9479880" lon="7.4498540"/>
   <trkpt lat="46.9479840" lon="7.4498960"/>
   <trkpt lat="46.9479870" lon="7.4499490"/>
   <trkpt lat="46.9479870" lon="7.4499890"/>
   <trkpt lat="46.9479890" lon="7.4500360"/>
   <trkpt lat="46.9479850" lon="7.4500810"/>
   <trkpt lat="46.9479870" lon="7.4501200"/>
   <trkpt lat="46.9479840" lon="7.4501730"/>
   <trkpt lat="46.9479810" lon="7.4502080"/>
   <trkpt lat="46.9479840" lon="7.4502500"/>
   <trkpt lat="46.9479800" lon="7.4502890"/>
   <trkpt lat="46.9479770" lon="7.4503310"/>
   <trkpt lat="46.9479700" lon="7.4503780"/>
   <trkpt lat="46.9479710" lon="7.4504210"/>
   <trkpt lat="46.9479790" lon="7.4504850"/>
   <trkpt lat="46.9479790" lon="7.4505320"/>
   <trkpt lat="46.9479840" lon="7.4505780"/>
   <trkpt lat="46.9479860" lon="7.4506260"/>
   <trkpt lat="46.9479860" lon="7.4506650"/>
   <trkpt lat="46.9479900" lon="7.4507180"/>
   <trkpt lat="46.9479900" lon="7.4507610"/>
   <trkpt lat="46.9480020" lon="7.4508080"/>
   <trkpt lat="46.9480010" lon="7.4508530"/>
   <trkpt lat="46.9480040" lon="7.4508910"/>
   <trkpt lat="46.9480010" lon="7.4509480"/>
   <trkpt lat="46.9479980" lon="7.4509950"/>
   <trkpt lat="46.9479970" lon="7.4510450"/>
   <trkpt lat="46.9479900" lon="7.4510920"/>
   <trkpt lat="46.9479920" lon="7.4511340"/>
   <trkpt lat="46.9479920" lon="7.4511920"/>
   <trkpt lat="46.9479890" lon="7.4512330"/>
   <trkpt lat="46.9479890" lon="7.4512900"/>
   <trkpt lat="46.9479890" lon="7.4513310"/>
   <trkpt lat="46.9479870" lon="7.4513790"/>
   <trkpt lat="46.9479840" lon="7.4514340"/>
   <trkpt lat="46.9479810" lon="7.4514780"/>
   <trkpt lat="46.9479790" lon="7.4515340"/>
   <trkpt lat="46.9479740" lon="7.4515740"/>
   <trkpt lat="46.9479730" lon="7.4516230"/>
   <trkpt lat="46.9479800" lon="7.4516690"/>
   <trkpt lat="46.9479830" lon="7.4517160"/>
   <trkpt lat="46.9479800" lon="7.4517720"/>
   <trkpt lat="46.9479800" lon="7.4518110"/>
   <trkpt lat="46.9479780" lon="7.4518670"/>
   <trkpt lat="46.9479830" lon="7.4519120"/>
   <trkpt lat="46.9479910" lon="7.4519600"/>
   <trkpt lat="46.9479990" lon="7.4520080"/>
   <trkpt lat="46.9480090" lon="7.4520500"/>
   <trkpt lat="46.9480170" lon="7.4521030"/>
   <trkpt lat="46.9480240" lon="7.4521410"/>
   <trkpt lat="46.9480350" lon="7.4521860"/>
   <trkpt lat="46.9480360" lon="7.4522300"/>
   <trkpt lat="46.9480500" lon="7.4522690"/>
   <trkpt lat="46.9480550" lon="7.4523210"/>
   <trkpt lat="46.9480610" lon="7.4523580"/>
   <trkpt lat="46.9480680" lon="7.4524140"/>
   <trkpt lat="46.9480660" lon="7.4524560"/>
   <trkpt lat="46.9480790" lon="7.4525030"/>
   <trkpt lat="46.9480820" lon="7.4525570"/>
   <trkpt lat="46.9480920" lon="7.4525990"/>
   <trkpt lat="46.9480960" lon="7.4526570"/>
   <trkpt lat="46.9481030" lon="7.4526960"/>
   <trkpt lat="46.9481060" lon="7.4527500"/>
   <trkpt lat="46.9481080" lon="7.4527900"/>
   <trkpt lat="46.9481130" lon="7.4528390"/>
   <trkpt lat="46.9481180" lon="7.4528870"/>
   <trkpt lat="46.9481250" lon="7.4529300"/>
   <trkpt lat="46.9481290" lon="7.4529870"/>
   <trkpt lat="46.9481300" lon="7.4530270"/>
   <trkpt lat="46.9481420" lon="7.4530780"/>
   <trkpt lat="46.9481460" lon="7.4531210"/>
   <trkpt lat="46.9481570" lon="7.4531720"/>
   <trkpt lat="46.9481670" lon="7.4532190"/>
   <trkpt lat="46.9481710" lon="7.4532640"/>
   <trkpt lat="46.9481830" lon="7.4533210"/>
   <trkpt lat="46.9481820" lon="7.4533620"/>
   <trkpt lat="46.9481890" lon="7.4534110"/>
   <trkpt lat="46.9481920" lon="7.4534540"/>
   <trkpt lat="46.9482090" lon="7.4534970"/>
   <trkpt lat="46.9482220" lon="7.4535510"/>
   <trkpt lat="46.9482280" lon="7.4535890"/>
   <trkpt lat="46.9482350" lon="7.4536430"/>
   <trkpt lat="46.9482380" lon="7.4536820"/>
   <trkpt lat="46.9482510" lon="7.4537310"/>
   <trkpt lat="46.9482640" lon="7.4537780"/>
   <trkpt lat="46.9482770" lon="7.4538250"/>
   <trkpt lat="46.9482870" lon="7.4538810"/>
   <trkpt lat="46.9482980" lon="7.4539280"/>
   <trkpt lat="46.9483090" lon="7.4539790"/>
   <trkpt lat="46.9483190" lon="7.4540230"/>
   <trkpt lat="46.9483290" lon="7.4540690"/>
   <trkpt lat="46.9483340" lon="7.4541180"/>
   <trkpt lat="46.9483470" lon="7.4541590"/>
   <trkpt lat="46.9483580" lon="7.4542160"/>
   <trkpt lat="46.9483680" lon="7.4542550"/>
   <trkpt lat="46.9483820" lon="7.4543040"/>
   <trkpt lat="46.9483930" lon="7.4543470"/>
   <trkpt lat="46.9484080" lon="7.4543870"/>
   <trkpt lat="46.9484170" lon="7.4544380"/>
   <trkpt lat="46.9484210" lon="7.4544740"/>
   <trkpt lat="46.9484320" lon="7.4545250"/>
   <trkpt lat="46.9484370" lon="7.4545660"/>
   <trkpt lat="46.9484490" lon="7.4546080"/>
   <trkpt lat="46.9484620" lon="7.4546550"/>
   <trkpt lat="46.9484690" lon="7.4546950"/>
   <trkpt lat="46.9484870" lon="7.4547470"/>
   <trkpt lat="46.9485020" lon="7.4547880"/>
   <trkpt lat="46.9485150" lon="7.4548290"/>
   <trkpt lat="46.9485300" lon="7.4548810"/>
   <trkpt lat="46.9485460" lon="7.4549180"/>
   <trkpt lat="46.9485600" lon="7.4549730"/>
   <trkpt lat="46.9485720" lon="7.4550150"/>
   <trkpt lat="46.9485880" lon="7.4550660"/>
   <trkpt lat="46.9485990" lon="7.4551120"/>
   <trkpt lat="46.9486090" lon="7.4551530"/>
   <trkpt lat="46.9486180" lon="7.4552030"/>
   <trkpt lat="46.9486330" lon="7.4552370"/>
   <trkpt lat="46.9486440" lon="7.4552850"/>
   <trkpt lat="46.9486490" lon="7.4553300"/>
   <trkpt lat="46.9486580" lon="7.4553800"/>
   <trkpt lat="46.9486660" lon="7.4554350"/>
   <trkpt lat="46.9486750" lon="7.4554780"/>
   <trkpt lat="46.9486800" lon="7.4555360"/>
   <trkpt lat="46.9486850" lon="7.4555770"/>
   <trkpt lat="46.9486880" lon="7.4556250"/>
   <trkpt lat="46.9486860" lon="7.4556770"/>
   <trkpt lat="46.9486880" lon="7.4557250"/>
   <trkpt lat="46.9486760" lon="7.4557800"/>
   <trkpt lat="46.9486700" lon="7.4558300"/>
   <trkpt lat="46.9486650" lon="7.4558870"/>
   <trkpt lat="46.9486620" lon="7.4559300"/>
   <trkpt lat="46.9486610" lon="7.4559900"/>
   <trkpt lat="46.9486540" lon="7.4560410"/>
   <trkpt lat="46.9486490" lon="7.4560930"/>
   <trkpt lat="46.9486410" lon="7.4561450"/>
   <trkpt lat="46.9486400" lon="7.4561870"/>
   <trkpt lat="46.9486370" lon="7.4562380"/>
   <trkpt lat="46.9486330" lon="7.4562800"/>
   <trkpt lat="46.9486280" lon="7.4563310"/>
   <trkpt lat="46.9486210" lon="7.4563780"/>
   <trkpt lat="46.9486200" lon="7.4564270"/>
   <trkpt lat="46.9486110" lon="7.4564830"/>
   <trkpt lat="46.9486070" lon="7.4565250"/>
   <trkpt lat="46.9486100" lon="7.4565780"/>
   <trkpt lat="46.9486110" lon="7.4566190"/>
   <trkpt lat="46.9486070" lon="7.4566670"/>
   <trkpt lat="46.9485990" lon="7.4567110"/>
   <trkpt lat="46.9485970" lon="7.4567590"/>
   <trkpt lat="46.9485890" lon="7.4568090"/>
   <trkpt lat="46.9485820" lon="7.4568560"/>
   <trkpt lat="46.9485750" lon="7.4569130"/>
   <trkpt lat="46.9485720" lon="7.4569570"/>
   <trkpt lat="46.9485670" lon="7.4570110"/>
   <trkpt lat="46.9485630" lon="7.4570580"/>
   <trkpt lat="46.9485590" lon="7.4571100"/>
   <trkpt lat="46.9485480" lon="7.4571560"/>
   <trkpt lat="46.9485480" lon="7.4571990"/>
   <trkpt lat="46.9485420" lon="7.4572510"/>
   <trkpt lat="46.9485370" lon="7.4572900"/>
   <trkpt lat="46.9485340" lon="7.4573410"/>
   <trkpt lat="46.9485260" lon="7.4573870"/>
   <trkpt lat="46.9485270" lon="7.4574360"/>
   <trkpt lat="46.9485210" lon="7.4574900"/>
   <trkpt lat="46.9485210" lon="7.4575320"/>
   <trkpt lat="46.9485180" lon="7.4575790"/>
   <trkpt lat="46.9485160" lon="7.4576230"/>
   <trkpt lat="46.9485160" lon="7.4576700"/>
   <trkpt lat="46.9485070" lon="7.4577160"/>
   <trkpt lat="46.9485040" lon="7.4577610"/>
   <trkpt lat="46.9484940" lon="7.4578140"/>
   <trkpt lat="46.9484880" lon="7.4578580"/>
   <trkpt lat="46.9484840" lon="7.4579150"/>
   <trkpt lat="46.9484890" lon="7.4579550"/>
   <trkpt lat="46.9484920" lon="7.4580040"/>
   <trkpt lat="46.9484930" lon="7.4580490"/>
   <trkpt lat="46.9484900" lon="7.4580970"/>
   <trkpt lat="46.9484840" lon="7.4581430"/>
   <trkpt lat="46.9484800" lon="7.4581880"/>
   <trkpt lat="46.9484720" lon="7.4582440"/>
   <trkpt lat="46.9484720" lon="7.4582910"/>
   <trkpt lat="46.9484650" lon="7.4583430"/>
   <trkpt lat="46.9484660" lon="7.4583810"/>
   <trkpt lat="46.9484620" lon="7.4584390"/>
   <trkpt lat="46.9484610" lon="7.4584810"/>
   <trkpt lat="46.9484610" lon="7.4585300"/>
   <trkpt lat="46.9484550" lon="7.4585750"/>
   <trkpt lat="46.9484480" lon="7.4586210"/>
   <trkpt lat="46.9484410" lon="7.4586760"/>
   <trkpt lat="46.9484360" lon="7.4587170"/>
   <trkpt lat="46.9484310" lon="7.4587750"/>
   <trkpt lat="46.9484310" lon="7.4588110"/>
   <trkpt lat="46.9484210" lon="7.4588670"/>
   <trkpt lat="46.9484220" lon="7.4589000"/>
   <trkpt lat="46.9484160" lon="7.4589480"/>
   <trkpt lat="46.9484070" lon="7.4589900"/>
   <trkpt lat="46.9484010" lon="7.4590360"/>
   <trkpt lat="46.9483940" lon="7.4590880"/>
   <trkpt lat="46.9483900" lon="7.4591340"/>
   <trkpt lat="46.9483830" lon="7.4591850"/>
   <trkpt lat="46.9483860" lon="7.4592200"/>
   <trkpt lat="46.9483840" lon="7.4592720"/>
   <trkpt lat="46.9483790" lon="7.4593150"/>
   <trkpt lat="46.9483790" lon="7.4593600"/>
   <trkpt lat="46.9483700" lon="7.4594100"/>
   <trkpt lat="46.9483710" lon="7.4594590"/>
   <trkpt lat="46.9483630" lon="7.4595100"/>
   <trkpt lat="46.9483570" lon="7.4595500"/>
   <trkpt lat="46.9483580" lon="7.4595980"/>
   <trkpt lat="46.9483500" lon="7.4596410"/>
   <trkpt lat="46.9483410" lon="7.4596880"/>
   <trkpt lat="46.9483290" lon="7.4597330"/>
   <trkpt lat="46.9483200" lon="7.4597730"/>
   <trkpt lat="46.9483080" lon="7.4598200"/>
   <trkpt lat="46.9483000" lon="7.4598570"/>
   <trkpt lat="46.9482920" lon="7.4599120"/>
   <trkpt lat="46.9482860" lon="7.4599600"/>
   <trkpt lat="46.9482940" lon="7.4600010"/>
   <trkpt lat="46.9483100" lon="7.4600440"/>
   <trkpt lat="46.9483290" lon="7.4600610"/>
   <trkpt lat="46.9483520" lon="7.4600810"/>
   <trkpt lat="46.9483750" lon="7.4601000"/>
   <trkpt lat="46.9484010" lon="7.4601250"/>
   <trkpt lat="46.9484250" lon="7.4601550"/>
   <trkpt lat="46.9484460" lon="7.4601800"/>
   <trkpt lat="46.9484710" lon="7.4602170"/>
   <trkpt lat="46.9484920" lon="7.4602400"/>
   <trkpt lat="46.9485210" lon="7.4602690"/>
   <trkpt lat="46.9485480" lon="7.4603020"/>
   <trkpt lat="46.9485710" lon="7.4603310"/>
   <trkpt lat="46.9485980" lon="7.4603650"/>
   <trkpt lat="46.9486220" lon="7.4603820"/>
   <trkpt lat="46.9486490" lon="7.4604060"/>
   <trkpt lat="46.9486740" lon="7.4604250"/>
   <trkpt lat="46.9487000" lon="7.4604400"/>
   <trkpt lat="46.9487250" lon="7.4604630"/>
   <trkpt lat="46.9487470" lon="7.4604770"/>
   <trkpt lat="46.9487770" lon="7.4604950"/>
   <trkpt lat="46.9488030" lon="7.4605040"/>
   <trkpt lat="46.9488340" lon="7.4605150"/>
   <trkpt lat="46.9488570" lon="7.4605160"/>
   <trkpt lat="46.9488780" lon="7.4605090"/>
   <trkpt lat="46.9489100" lon="7.4604980"/>
   <trkpt lat="46.9489340" lon="7.4604890"/>
   <trkpt lat="46.9489650" lon="7.4604720"/>
   <trkpt lat="46.9489880" lon="7.4604570"/>
   <trkpt lat="46.9490140" lon="7.4604490"/>
   <trkpt lat="46.9490430" lon="7.4604410"/>
   <trkpt lat="46.9490640" lon="7.4604240"/>
   <trkpt lat="46.9490910" lon="7.4604110"/>
   <trkpt lat="46.9491130" lon="7.4604020"/>
   <trkpt lat="46.9491370" lon="7.4603880"/>
   <trkpt lat="46.9491640" lon="7.4603870"/>
   <trkpt lat="46.9491890" lon="7.4603760"/>
   <trkpt lat="46.9492210" lon="7.4603670"/>
   <trkpt lat="46.9492430" lon="7.4603510"/>
   <trkpt lat="46.9492700" lon="7.4603410"/>
   <trkpt lat="46.9492990" lon="7.4603340"/>
   <trkpt lat="46.9493270" lon="7.4603280"/>
   <trkpt lat="46.9493600" lon="7.4603240"/>
   <trkpt lat="46.9493860" lon="7.4603170"/>
   <trkpt lat="46.9494160" lon="7.4603130"/>
   <trkpt lat="46.9494410" lon="7.4603110"/>
   <trkpt lat="46.9494650" lon="7.4603010"/>
   <trkpt lat="46.9494930" lon="7.4602990"/>
   <trkpt lat="46.9495130" lon="7.4602970"/>
   <trkpt lat="46.9495410" lon="7.4602980"/>
   <trkpt lat="46.9495600" lon="7.4602910"/>
   <trkpt lat="46.9495880" lon="7.4602830"/>
   <trkpt lat="46.9496160" lon="7.4602760"/>
   <trkpt lat="46.9496400" lon="7.4602710"/>
   <trkpt lat="46.9496700" lon="7.4602610"/>
   <trkpt lat="46.9496960" lon="7.4602510"/>
   <trkpt lat="46.9497210" lon="7.4602400"/>
   <trkpt lat="46.9497470" lon="7.4602300"/>
   <trkpt lat="46.9497730" lon="7.4602210"/>
   <trkpt lat="46.9498030" lon="7.4602170"/>
   <trkpt lat="46.9498280" lon="7.4602110"/>
   <trkpt lat="46.9498520" lon="7.4602070"/>
   <trkpt lat="46.9498870" lon="7.4602110"/>
   <trkpt lat="46.9499100" lon="7.4602010"/>
   <trkpt lat="46.9499410" lon="7.4601900"/>
   <trkpt lat="46.9499640" lon="7.4601850"/>
   <trkpt lat="46.9499880" lon="7.4601760"/>
   <trkpt lat="46.9500150" lon="7.4601720"/>
   <trkpt lat="46.9500330" lon="7.4601620"/>
   <trkpt lat="46.9500580" lon="7.4601520"/>
   <trkpt lat="46.9500840" lon="7.4601480"/>
   <trkpt lat="46.9501070" lon="7.4601410"/>
   <trkpt lat="46.9501370" lon="7.4601360"/>
   <trkpt lat="46.9501590" lon="7.4601350"/>
   <trkpt lat="46.9501860" lon="7.4601300"/>
   <trkpt lat="46.9502120" lon="7.4601280"/>
   <trkpt lat="46.9502400" lon="7.4601280"/>
   <trkpt lat="46.9502660" lon="7.4601230"/>
   <trkpt lat="46.9502740" lon="7.4601020"/>
   <trkpt lat="46.9503040" lon="7.4600860"/>
   <trkpt lat="46.9503280" lon="7.4600760"/>
   <trkpt lat="46.9503470" lon="7.4600620"/>
   <trkpt lat="46.9503740" lon="7.4600490"/>
   <trkpt lat="46.9503930" lon="7.4600350"/>
   <trkpt lat="46.9504260" lon="7.4600200"/>
   <trkpt lat="46.9504510" lon="7.4600130"/>
   <trkpt lat="46.9504730" lon="7.4599990"/>
   <trkpt lat="46.9505000" lon="7.4599880"/>
   <trkpt lat="46.9505190" lon="7.4599710"/>
   <trkpt lat="46.9505440" lon="7.4599610"/>
   <trkpt lat="46.9505670" lon="7.4599520"/>
   <trkpt lat="46.9505800" lon="7.4599310"/>
   <trkpt lat="46.9506050" lon="7.4599150"/>
   <trkpt lat="46.9506270" lon="7.4599020"/>
   <trkpt lat="46.9506560" lon="7.4598810"/>
   <trkpt lat="46.9506800" lon="7.4598660"/>
   <trkpt lat="46.9507000" lon="7.4598470"/>
   <trkpt lat="46.9507250" lon="7.4598290"/>
   <trkpt lat="46.9507370" lon="7.4598140"/>
   <trkpt lat="46.9507620" lon="7.4597930"/>
   <trkpt lat="46.9507810" lon="7.4597790"/>
   <trkpt lat="46.9508030" lon="7.4597620"/>
   <trkpt lat="46.9508260" lon="7.4597500"/>
   <trkpt lat="46.9508440" lon="7.4597350"/>
   <trkpt lat="46.9508710" lon="7.4597210"/>
   <trkpt lat="46.9508910" lon="7.4597120"/>
   <trkpt lat="46.9509100" lon="7.4596970"/>
   <trkpt lat="46.9509330" lon="7.4596760"/>
   <trkpt lat="46.9509500" lon="7.4596590"/>
   <trkpt lat="46.9509720" lon="7.4596390"/>
   <trkpt lat="46.9509910" lon="7.4596240"/>
   <trkpt lat="46.9510110" lon="7.4596040"/>
   <trkpt lat="46.9510340" lon="7.4595820"/>
   <trkpt lat="46.9510540" lon="7.4595580"/>
   <trkpt lat="46.9510760" lon="7.4595340"/>
   <trkpt lat="46.9511020" lon="7.4595200"/>
   <trkpt lat="46.9511240" lon="7.4595040"/>
   <trkpt lat="46.9511510" lon="7.4594870"/>
   <trkpt lat="46.9511690" lon="7.4594700"/>
   <trkpt lat="46.9511940" lon="7.4594540"/>
   <trkpt lat="46.9512190" lon="7.4594410"/>
   <trkpt lat="46.9512400" lon="7.4594270"/>
   <trkpt lat="46.9512690" lon="7.4594060"/>
   <trkpt lat="46.9512890" lon="7.4593950"/>
   <trkpt lat="46.9513090" lon="7.4593720"/>
   <trkpt lat="46.9513310" lon="7.4593530"/>
   <trkpt lat="46.9513480" lon="7.4593350"/>
   <trkpt lat="46.9513750" lon="7.4593110"/>
   <trkpt lat="46.9513920" lon="7.4592940"/>
   <trkpt lat="46.9514090" lon="7.4592720"/>
   <trkpt lat="46.9514320" lon="7.4592460"/>
   <trkpt lat="46.9514510" lon="7.4592310"/>
   <trkpt lat="46.9514780" lon="7.4592140"/>
   <trkpt lat="46.9514990" lon="7.4592020"/>
   <trkpt lat="46.9515200" lon="7.4591840"/>
   <trkpt lat="46.9515410" lon="7.4591670"/>
   <trkpt lat="46.9515580" lon="7.4591490"/>
   <trkpt lat="46.9515770" lon="7.4591260"/>
   <trkpt lat="46.9515970" lon="7.4591090"/>
   <trkpt lat="46.9516230" lon="7.4590880"/>
   <trkpt lat="46.9516440" lon="7.4590780"/>
   <trkpt lat="46.9516660" lon="7.4590600"/>
   <trkpt lat="46.9516910" lon="7.4590420"/>
   <trkpt lat="46.9517110" lon="7.4590290"/>
   <trkpt lat="46.9517400" lon="7.4590060"/>
   <trkpt lat="46.9517630" lon="7.4589850"/>
   <trkpt lat="46.9517850" lon="7.4589650"/>
   <trkpt lat="46.9518110" lon="7.4589480"/>
   <trkpt lat="46.9518290" lon="7.4589270"/>
   <trkpt lat="46.9518550" lon="7.4589100"/>
   <trkpt lat="46.9518780" lon="7.4588980"/>
   <trkpt lat="46.9519030" lon="7.4588920"/>
   <trkpt lat="46.9519280" lon="7.4588780"/>
   <trkpt lat="46.9519490" lon="7.4588690"/>
   <trkpt lat="46.9519750" lon="7.4588520"/>
   <trkpt lat="46.9519960" lon="7.4588450"/>
   <trkpt lat="46.9520190" lon="7.4588330"/>
   <trkpt lat="46.9520430" lon="7.4588220"/>
   <trkpt lat="46.9520640" lon="7.4588150"/>
   <trkpt lat="46.9520900" lon="7.4588070"/>
   <trkpt lat="46.9521130" lon="7.4588020"/>
   <trkpt lat="46.9521340" lon="7.4587870"/>
   <trkpt lat="46.9521630" lon="7.4587810"/>
   <trkpt lat="46.9521810" lon="7.4587750"/>
   <trkpt lat="46.9522080" lon="7.4587650"/>
   <trkpt lat="46.9522340" lon="7.4587620"/>
   <trkpt lat="46.9522540" lon="7.4587620"/>
   <trkpt lat="46.9522800" lon="7.4587600"/>
   <trkpt lat="46.9523010" lon="7.4587580"/>
   <trkpt lat="46.9523220" lon="7.4587520"/>
   <trkpt lat="46.9523440" lon="7.4587570"/>
   <trkpt lat="46.9523740" lon="7.4587540"/>
   <trkpt lat="46.9524020" lon="7.4587610"/>
   <trkpt lat="46.9524230" lon="7.4587590"/>
   <trkpt lat="46.9524560" lon="7.4587610"/>
   <trkpt lat="46.9524840" lon="7.4587720"/>
   <trkpt lat="46.9525110" lon="7.4587800"/>
   <trkpt lat="46.9525390" lon="7.4587910"/>
   <trkpt lat="46.9525560" lon="7.4587880"/>
   <trkpt lat="46.9525810" lon="7.4587930"/>
   <trkpt lat="46.9526020" lon="7.4587980"/>
   <trkpt lat="46.9526250" lon="7.4588080"/>
   <trkpt lat="46.9526480" lon="7.4588190"/>
   <trkpt lat="46.9526680" lon="7.4588250"/>
   <trkpt lat="46.9526930" lon="7.4588400"/>
   <trkpt lat="46.9527150" lon="7.4588480"/>
   <trkpt lat="46.9527400" lon="7.4588580"/>
   <trkpt lat="46.9527640" lon="7.4588730"/>
   <trkpt lat="46.9527820" lon="7.4588810"/>
   <trkpt lat="46.9528070" lon="7.4588980"/>
   <trkpt lat="46.9528280" lon="7.4589130"/>
   <trkpt lat="46.9528530" lon="7.4589260"/>
   <trkpt lat="46.9528750" lon="7.4589390"/>
   <trkpt lat="46.9528890" lon="7.4589430"/>
   <trkpt lat="46.9529150" lon="7.4589680"/>
   <trkpt lat="46.9529300" lon="7.4589750"/>
   <trkpt lat="46.9529570" lon="7.4589910"/>
   <trkpt lat="46.9529770" lon="7.4590120"/>
   <trkpt lat="46.9529930" lon="7.4590210"/>
   <trkpt lat="46.9530200" lon="7.4590420"/>
   <trkpt lat="46.9530430" lon="7.4590550"/>
   <trkpt lat="46.9530710" lon="7.4590750"/>
   <trkpt lat="46.9530910" lon="7.4590930"/>
   <trkpt lat="46.9531110" lon="7.4591110"/>
   <trkpt lat="46.9531370" lon="7.4591400"/>
   <trkpt lat="46.9531550" lon="7.4591570"/>
   <trkpt lat="46.9531760" lon="7.4591840"/>
   <trkpt lat="46.9531900" lon="7.4592170"/>
   <trkpt lat="46.9532040" lon="7.4592460"/>
   <trkpt lat="46.9532100" lon="7.4592930"/>
   <trkpt lat="46.9532140" lon="7.4593220"/>
   <trkpt lat="46.9532130" lon="7.4593630"/>
   <trkpt lat="46.9532000" lon="7.4594010"/>
   <trkpt lat="46.9531940" lon="7.4594350"/>
   <trkpt lat="46.9531840" lon="7.4594770"/>
   <trkpt lat="46.9531740" lon="7.4595080"/>
   <trkpt lat="46.9531700" lon="7.4595450"/>
   <trkpt lat="46.9531540" lon="7.4595830"/>
   <trkpt lat="46.9531450" lon="7.4596100"/>
   <trkpt lat="46.9531250" lon="7.4596460"/>
   <trkpt lat="46.9531010" lon="7.4596760"/>
   <trkpt lat="46.9530850" lon="7.4597060"/>
   <trkpt lat="46.9530570" lon="7.4597370"/>
   <trkpt lat="46.9530430" lon="7.4597600"/>
   <trkpt lat="46.9530200" lon="7.4597980"/>
   <trkpt lat="46.9530000" lon="7.4598330"/>
   <trkpt lat="46.9529870" lon="7.4598580"/>
   <trkpt lat="46.9529630" lon="7.4598890"/>
   <trkpt lat="46.9529500" lon="7.4599110"/>
   <trkpt lat="46.9529290" lon="7.4599430"/>
   <trkpt lat="46.9529090" lon="7.4599680"/>
   <trkpt lat="46.9528950" lon="7.4599970"/>
   <trkpt lat="46.9528710" lon="7.4600290"/>
   <trkpt lat="46.9528560" lon="7.4600560"/>
   <trkpt lat="46.9528310" lon="7.4600890"/>
   <trkpt lat="46.9528160" lon="7.4601140"/>
   <trkpt lat="46.9527960" lon="7.4601460"/>
   <trkpt lat="46.9527750" lon="7.4601760"/>
   <trkpt lat="46.9527620" lon="7.4602040"/>
   <trkpt lat="46.9527420" lon="7.4602360"/>
   <trkpt lat="46.9527320" lon="7.4602590"/>
   <trkpt lat="46.9527090" lon="7.4602910"/>
   <trkpt lat="46.9526890" lon="7.4603250"/>
   <trkpt lat="46.9526660" lon="7.4603540"/>
   <trkpt lat="46.9526430" lon="7.4603890"/>
   <trkpt lat="46.9526320" lon="7.4604150"/>
   <trkpt lat="46.9526140" lon="7.4604470"/>
   <trkpt lat="46.9526000" lon="7.4604760"/>
   <trkpt lat="46.9525870" lon="7.4605030"/>
   <trkpt lat="46.9525680" lon="7.4605340"/>
   <trkpt lat="46.9525550" lon="7.4605550"/>
   <trkpt lat="46.9525300" lon="7.4605910"/>
   <trkpt lat="46.9525180" lon="7.4606220"/>
   <trkpt lat="46.9524940" lon="7.4606580"/>
   <trkpt lat="46.9524690" lon="7.4606820"/>
   <trkpt lat="46.9524450" lon="7.4607130"/>
   <trkpt lat="46.9524190" lon="7.4607480"/>
   <trkpt lat="46.9524030" lon="7.4607790"/>
   <trkpt lat="46.9523750" lon="7.4608190"/>
   <trkpt lat="46.9523590" lon="7.4608430"/>
   <trkpt lat="46.9523380" lon="7.4608730"/>
   <trkpt lat="46.9523150" lon="7.4609090"/>
   <trkpt lat="46.9522970" lon="7.4609370"/>
   <trkpt lat="46.9522760" lon="7.4609780"/>
   <trkpt lat="46.9522560" lon="7.4610030"/>
   <trkpt lat="46.9522410" lon="7.4610380"/>
   <trkpt lat="46.9522260" lon="7.4610700"/>
   <trkpt lat="46.9522060" lon="7.4611080"/>
   <trkpt lat="46.9521840" lon="7.4611370"/>
   <trkpt lat="46.9521750" lon="7.4611680"/>
   <trkpt lat="46.9521540" lon="7.4612020"/>
   <trkpt lat="46.9521380" lon="7.4612290"/>
   <trkpt lat="46.9521210" lon="7.4612680"/>
   <trkpt lat="46.9521050" lon="7.4613020"/>
   <trkpt lat="46.9520850" lon="7.4613390"/>
   <trkpt lat="46.9520660" lon="7.4613710"/>
   <trkpt lat="46.9520530" lon="7.4614020"/>
   <trkpt lat="46.9520300" lon="7.4614430"/>
   <trkpt lat="46.9520190" lon="7.4614710"/>
   <trkpt lat="46.9519970" lon="7.4615000"/>
   <trkpt lat="46.9519730" lon="7.4615270"/>
   <trkpt lat="46.9519580" lon="7.4615590"/>
   <trkpt lat="46.9519420" lon="7.4616030"/>
   <trkpt lat="46.9519410" lon="7.4616330"/>
   <trkpt lat="46.9519540" lon="7.4616790"/>
   <trkpt lat="46.9519710" lon="7.4617110"/>
   <trkpt lat="46.9519880" lon="7.4617520"/>
   <trkpt lat="46.9520060" lon="7.4618010"/>
   <trkpt lat="46.9520280" lon="7.4618360"/>
   <trkpt lat="46.9520520" lon="7.4618770"/>
   <trkpt lat="46.9520710" lon="7.4619040"/>
   <trkpt lat="46.9520950" lon="7.4619440"/>
   <trkpt lat="46.9521130" lon="7.4619780"/>
   <trkpt lat="46.9521340" lon="7.4620150"/>
   <trkpt lat="46.9521520" lon="7.4620550"/>
   <trkpt lat="46.9521680" lon="7.4620880"/>
   <trkpt lat="46.9521860" lon="7.4621240"/>
   <trkpt lat="46.9522000" lon="7.4621570"/>
   <trkpt lat="46.9522170" lon="7.4621950"/>
   <trkpt lat="46.9522320" lon="7.4622270"/>
   <trkpt lat="46.9522530" lon="7.4622690"/>
   <trkpt lat="46.9522720" lon="7.4623050"/>
   <trkpt lat="46.9522920" lon="7.4623420"/>
   <trkpt lat="46.9523100" lon="7.4623880"/>
   <trkpt lat="46.9523300" lon="7.4624250"/>
   <trkpt lat="46.9523480" lon="7.4624690"/>
   <trkpt lat="46.9523680" lon="7.4624990"/>
   <trkpt lat="46.9523840" lon="7.4625390"/>
   <trkpt lat="46.9524000" lon="7.4625740"/>
   <trkpt lat="46.9524230" lon="7.4626100"/>
   <trkpt lat="46.9524400" lon="7.4626440"/>
   <trkpt lat="46.9524620" lon="7.4626780"/>
   <trkpt lat="46.9524790" lon="7.4627170"/>
   <trkpt lat="46.9525000" lon="7.4627550"/>
   <trkpt lat="46.9525210" lon="7.4628030"/>
   <trkpt lat="46.9525330" lon="7.4628350"/>
   <trkpt lat="46.9525510" lon="7.4628830"/>
   <trkpt lat="46.9525680" lon="7.4629110"/>
   <trkpt lat="46.9525940" lon="7.4629530"/>
   <trkpt lat="46.9526140" lon="7.4629890"/>
   <trkpt lat="46.9526360" lon="7.4630260"/>
   <trkpt lat="46.9526580" lon="7.4630620"/>
   <trkpt lat="46.9526760" lon="7.4630900"/>
   <trkpt lat="46.9526980" lon="7.4631300"/>
   <trkpt lat="46.9527240" lon="7.4631700"/>
   <trkpt lat="46.9527450" lon="7.4632130"/>
   <trkpt lat="46.9527630" lon="7.4632430"/>
   <trkpt lat="46.9527870" lon="7.4632810"/>
   <trkpt lat="46.9528060" lon="7.4633100"/>
   <trkpt lat="46.9528270" lon="7.4633540"/>
   <trkpt lat="46.9528480" lon="7.4633900"/>
   <trkpt lat="46.9528720" lon="7.4634260"/>
   <trkpt lat="46.9528930" lon="7.4634680"/>
   <trkpt lat="46.9529170" lon="7.4635000"/>
   <trkpt lat="46.9529410" lon="7.4635380"/>
   <trkpt lat="46.9529670" lon="7.4635680"/>
   <trkpt lat="46.9529970" lon="7.4636040"/>
   <trkpt lat="46.9530180" lon="7.4636260"/>
   <trkpt lat="46.9530450" lon="7.4636660"/>
   <trkpt lat="46.9530620" lon="7.4637000"/>
   <trkpt lat="46.9530910" lon="7.4637380"/>
   <trkpt lat="46.9531170" lon="7.4637610"/>
   <trkpt lat="46.9531460" lon="7.4637980"/>
   <trkpt lat="46.9531750" lon="7.4638200"/>
   <trkpt lat="46.9532030" lon="7.4638510"/>
   <trkpt lat="46.9532310" lon="7.4638860"/>
   <trkpt lat="46.9532580" lon="7.4639180"/>
   <trkpt lat="46.9532890" lon="7.4639520"/>
   <trkpt lat="46.9533150" lon="7.4639860"/>
   <trkpt lat="46.9533400" lon="7.4640270"/>
   <trkpt lat="46.9533660" lon="7.4640580"/>
   <trkpt lat="46.9533960" lon="7.4640990"/>
   <trkpt lat="46.9534200" lon="7.4641260"/>
   <trkpt lat="46.9534520" lon="7.4641600"/>
   <trkpt lat="46.9534750" lon="7.4641830"/>
   <trkpt lat="46.9535040" lon="7.4642120"/>
   <trkpt lat="46.9535280" lon="7.4642450"/>
   <trkpt lat="46.9535520" lon="7.4642780"/>
   <trkpt lat="46.9535750" lon="7.4643100"/>
   <trkpt lat="46.9535970" lon="7.4643360"/>
   <trkpt lat="46.9536220" lon="7.4643670"/>
   <trkpt lat="46.9536460" lon="7.4643930"/>
   <trkpt lat="46.9536730" lon="7.4644300"/>
   <trkpt lat="46.9536960" lon="7.4644570"/>
   <trkpt lat="46.9537250" lon="7.4644950"/>
   <trkpt lat="46.9537450" lon="7.4645210"/>
   <trkpt lat="46.9537710" lon="7.4645550"/>
   <trkpt lat="46.9537930" lon="7.4645750"/>
   <trkpt lat="46.9538230" lon="7.4646110"/>
   <trkpt lat="46.9538520" lon="7.4646320"/>
   <trkpt lat="46.9538900" lon="7.4646690"/>
   <trkpt lat="46.9539150" lon="7.4646970"/>
   <trkpt lat="46.9539450" lon="7.4647250"/>
   <trkpt lat="46.9539720" lon="7.4647580"/>
   <trkpt lat="46.9540000" lon="7.4647860"/>
   <trkpt lat="46.9540320" lon="7.4648220"/>
   <trkpt lat="46.9540570" lon="7.4648480"/>
   <trkpt lat="46.9540880" lon="7.4648840"/>
   <trkpt lat="46.9541120" lon="7.4649090"/>
   <trkpt lat="46.9541410" lon="7.4649490"/>
   <trkpt lat="46.9541630" lon="7.4649700"/>
   <trkpt lat="46.9541850" lon="7.4649980"/>
   <trkpt lat="46.9542110" lon="7.4650220"/>
   <trkpt lat="46.9542400" lon="7.4650520"/>
   <trkpt lat="46.9542670" lon="7.4650880"/>
   <trkpt lat="46.9542950" lon="7.4651150"/>
   <trkpt lat="46.9543240" lon="7.4651490"/>
   <trkpt lat="46.9543520" lon="7.4651750"/>
   <trkpt lat="46.9543840" lon="7.4652100"/>
   <trkpt lat="46.9544130" lon="7.4652360"/>
   <trkpt lat="46.9544460" lon="7.4652720"/>
   <trkpt lat="46.9544820" lon="7.4652950"/>
   <trkpt lat="46.9545110" lon="7.4653230"/>
   <trkpt lat="46.9545350" lon="7.4653480"/>
   <trkpt lat="46.9545600" lon="7.4653790"/>
   <trkpt lat="46.9545860" lon="7.4654220"/>
   <trkpt lat="46.9546120" lon="7.4654510"/>
   <trkpt lat="46.9546420" lon="7.4654880"/>
   <trkpt lat="46.9546660" lon="7.4655100"/>
   <trkpt lat="46.9547000" lon="7.4655400"/>
   <trkpt lat="46.9547260" lon="7.4655690"/>
   <trkpt lat="46.9547550" lon="7.4655960"/>
   <trkpt lat="46.9547840" lon="7.4656310"/>
   <trkpt lat="46.9548090" lon="7.4656520"/>
   <trkpt lat="46.9548430" lon="7.4656830"/>
   <trkpt lat="46.9548690" lon="7.4657070"/>
   <trkpt lat="46.9548990" lon="7.4657350"/>
   <trkpt lat="46.9549270" lon="7.4657600"/>
   <trkpt lat="46.9549540" lon="7.4657870"/>
   <trkpt lat="46.9549790" lon="7.4658270"/>
   <trkpt lat="46.9549990" lon="7.4658520"/>
   <trkpt lat="46.9550270" lon="7.4658920"/>
   <trkpt lat="46.9550520" lon="7.4659190"/>
   <trkpt lat="46.9550840" lon="7.4659510"/>
   <trkpt lat="46.9551110" lon="7.4659750"/>
   <trkpt lat="46.9551410" lon="7.4660070"/>
   <trkpt lat="46.9551670" lon="7.4660380"/>
   <trkpt lat="46.9551940" lon="7.4660620"/>
   <trkpt lat="46.9552250" lon="7.4660990"/>
   <trkpt lat="46.9552510" lon="7.4661270"/>
   <trkpt lat="46.9552860" lon="7.4661680"/>
   <trkpt lat="46.9553140" lon="7.4662030"/>
   <trkpt lat="46.9553450" lon="7.4662380"/>
   <trkpt lat="46.9553720" lon="7.4662670"/>
   <trkpt lat="46.9554030" lon="7.4662980"/>
   <trkpt lat="46.9554300" lon="7.4663300"/>
   <trkpt lat="46.9554570" lon="7.4663620"/>
   <trkpt lat="46.9554810" lon="7.4664020"/>
   <trkpt lat="46.9555080" lon="7.4664360"/>
   <trkpt lat="46.9555330" lon="7.4664730"/>
   <trkpt lat="46.9555610" lon="7.4665040"/>
   <trkpt lat="46.9555850" lon="7.4665460"/>
   <trkpt lat="46.9556070" lon="7.4665800"/>
   <trkpt lat="46.9556300" lon="7.4666190"/>
   <trkpt lat="46.9556490" lon="7.4666500"/>
   <trkpt lat="46.9556760" lon="7.4666910"/>
   <trkpt lat="46.9557000" lon="7.4667230"/>
   <trkpt lat="46.9557260" lon="7.4667590"/>
   <trkpt lat="46.9557510" lon="7.4667950"/>
   <trkpt lat="46.9557690" lon="7.4668260"/>
   <trkpt lat="46.9557920" lon="7.4668660"/>
   <trkpt lat="46.9558140" lon="7.4668950"/>
   <trkpt lat="46.9558430" lon="7.4669350"/>
   <trkpt lat="46.9558680" lon="7.4669620"/>
   <trkpt lat="46.9558970" lon="7.4670000"/>
   <trkpt lat="46.9559250" lon="7.4670320"/>
   <trkpt lat="46.9559530" lon="7.4670690"/>
   <trkpt lat="46.9559770" lon="7.4671000"/>
   <trkpt lat="46.9560000" lon="7.4671340"/>
   <trkpt lat="46.9560240" lon="7.4671750"/>
   <trkpt lat="46.9560430" lon="7.4672040"/>
   <trkpt lat="46.9560690" lon="7.4672430"/>
   <trkpt lat="46.9561050" lon="7.4672830"/>
   <trkpt lat="46.9561280" lon="7.4673260"/>
   <trkpt lat="46.9561470" lon="7.4673620"/>
   <trkpt lat="46.9561710" lon="7.4674000"/>
   <trkpt lat="46.9561930" lon="7.4674340"/>
   <trkpt lat="46.9562190" lon="7.4674660"/>
   <trkpt lat="46.9562490" lon="7.4675030"/>
   <trkpt lat="46.9562820" lon="7.4675310"/>
   <trkpt lat="46.9563240" lon="7.4675530"/>
   <trkpt lat="46.9563580" lon="7.4675570"/>
   <trkpt lat="46.9563960" lon="7.4675580"/>
   <trkpt lat="46.9564250" lon="7.4675480"/>
   <trkpt lat="46.9564640" lon="7.4675320"/>
   <trkpt lat="46.9564940" lon="7.4675150"/>
   <trkpt lat="46.9565260" lon="7.4674900"/>
   <trkpt lat="46.9565590" lon="7.4674690"/>
   <trkpt lat="46.9565950" lon="7.4674420"/>
   <trkpt lat="46.9566270" lon="7.4674240"/>
   <trkpt lat="46.9566580" lon="7.4673950"/>
   <trkpt lat="46.9566900" lon="7.4673650"/>
   <trkpt lat="46.9567200" lon="7.4673360"/>
   <trkpt lat="46.9567550" lon="7.4673120"/>
   <trkpt lat="46.9567830" lon="7.4672800"/>
   <trkpt lat="46.9568200" lon="7.4672480"/>
   <trkpt lat="46.9568490" lon="7.4672170"/>
   <trkpt lat="46.9568870" lon="7.4671890"/>
   <trkpt lat="46.9569140" lon="7.4671680"/>
   <trkpt lat="46.9569500" lon="7.4671330"/>
   <trkpt lat="46.9569740" lon="7.4671100"/>
   <trkpt lat="46.9570080" lon="7.4670750"/>
   <trkpt lat="46.9570340" lon="7.4670460"/>
   <trkpt lat="46.9570670" lon="7.4670090"/>
   <trkpt lat="46.9570940" lon="7.4669800"/>
   <trkpt lat="46.9571260" lon="7.4669430"/>
   <trkpt lat="46.9571550" lon="7.4669090"/>
   <trkpt lat="46.9571890" lon="7.4668730"/>
   <trkpt lat="46.9572210" lon="7.4668400"/>
   <trkpt lat="46.9572540" lon="7.4668030"/>
   <trkpt lat="46.9572880" lon="7.4667720"/>
   <trkpt lat="46.9573180" lon="7.4667370"/>
   <trkpt lat="46.9573470" lon="7.4667050"/>
   <trkpt lat="46.9573750" lon="7.4666690"/>
   <trkpt lat="46.9574070" lon="7.4666380"/>
   <trkpt lat="46.9574390" lon="7.4666020"/>
   <trkpt lat="46.9574390" lon="7.4666020"/>
  </trkseg>
 </trk>
</gpx>
